{"type": "FeatureCollection", "features": [ {"type": "Feature", "properties": {"norad_id": 44476, "name": "INTELSAT 39 (IS-39)", "group": "intelsat", "lat": 0.04139663488412982, "lon": 71.79649659989084, "alt_km": 35784.32159475883, "timestamp": "2025-12-15T19:00:45.014387+00:00", "meta": {"OBJECT_NAME": "INTELSAT 39 (IS-39)", "OBJECT_ID": "2019-049B", "EPOCH": "2025-12-14T22:42:38.818368", "MEAN_MOTION": 1.00270878, "ECCENTRICITY": 0.00012415, "INCLINATION": 0.0196, "RA_OF_ASC_NODE": 330.0545, "ARG_OF_PERICENTER": 169.955, "MEAN_ANOMALY": 346.4542, "EPHEMERIS_TYPE": 0, "CLASSIFICATION_TYPE": "U", "NORAD_CAT_ID": 44476, "ELEMENT_SET_NO": 999, "REV_AT_EPOCH": 2328, "BSTAR": 0, "MEAN_MOTION_DOT": 5.4e-07, "MEAN_MOTION_DDOT": 0}, "tle": {"line1": "1 44476U 19049B   25348.94628262  .00000054  00000+0  00000+0 0  9996", "line2": "2 44476   0.0196 330.0545 0001241 169.9550 346.4542  1.00270878 23282"}}, "geometry": {"type": "Point", "coordinates": [71.79649659989084, 0.04139663488412982]}}, {"type": "Feature", "properties": {"norad_id": 46114, "name": "GALAXY 30 (G-30)", "group": "intelsat", "lat": -0.039041366677104394, "lon": -115.13403519185975, "alt_km": 35777.424659180906, "timestamp": "2025-12-15T19:00:45.014399+00:00", "meta": {"OBJECT_NAME": "GALAXY 30 (G-30)", "OBJECT_ID": "2020-056C", "EPOCH": "2025-12-14T16:14:52.443168", "MEAN_MOTION": 1.00271715, "ECCENTRICITY": 0.00021307, "INCLINATION": 0.0181, "RA_OF_ASC_NODE": 355.3137, "ARG_OF_PERICENTER": 267.0636, "MEAN_ANOMALY": 299.9386, "EPHEMERIS_TYPE": 0, "CLASSIFICATION_TYPE": "U", "NORAD_CAT_ID": 46114, "ELEMENT_SET_NO": 999, "REV_AT_EPOCH": 1944, "BSTAR": 0, "MEAN_MOTION_DOT": 5.6e-07, "MEAN_MOTION_DDOT": 0}, "tle": {"line1": "1 46114U 20056C   25348.67699587  .00000056  00000+0  00000+0 0  9997", "line2": "2 46114   0.0181 355.3137 0002130 267.0636 299.9386  1.00271715 19449"}}, "geometry": {"type": "Point", "coordinates": [-115.13403519185975, -0.039041366677104394]}}, {"type": "Feature", "properties": {"norad_id": 54026, "name": "GALAXY 33 (G-33)", "group": "intelsat", "lat": -0.03228892423540523, "lon": -123.13308471898272, "alt_km": 35778.356802197784, "timestamp": "2025-12-15T19:00:45.014411+00:00", "meta": {"OBJECT_NAME": "GALAXY 33 (G-33)", "OBJECT_ID": "2022-128A", "EPOCH": "2025-12-14T16:12:37.658304", "MEAN_MOTION": 1.00272574, "ECCENTRICITY": 0.00018603, "INCLINATION": 0.0104, "RA_OF_ASC_NODE": 328.9478, "ARG_OF_PERICENTER": 287.8681, "MEAN_ANOMALY": 296.9341, "EPHEMERIS_TYPE": 0, "CLASSIFICATION_TYPE": "U", "NORAD_CAT_ID": 54026, "ELEMENT_SET_NO": 999, "REV_AT_EPOCH": 1189, "BSTAR": 0, "MEAN_MOTION_DOT": 9.8e-07, "MEAN_MOTION_DDOT": 0}, "tle": {"line1": "1 54026U 22128A   25348.67543586  .00000098  00000+0  00000+0 0  9993", "line2": "2 54026   0.0104 328.9478 0001860 287.8681 296.9341  1.00272574 11891"}}, "geometry": {"type": "Point", "coordinates": [-123.13308471898272, -0.03228892423540523]}}, {"type": "Feature", "properties": {"norad_id": 54027, "name": "GALAXY 34 (G-34)", "group": "intelsat", "lat": -0.047815426835981306, "lon": -119.08305999712512, "alt_km": 35781.52547699193, "timestamp": "2025-12-15T19:00:45.014423+00:00", "meta": {"OBJECT_NAME": "GALAXY 34 (G-34)", "OBJECT_ID": "2022-128B", "EPOCH": "2025-12-14T16:13:45.050304", "MEAN_MOTION": 1.00267036, "ECCENTRICITY": 0.0001377, "INCLINATION": 0.0264, "RA_OF_ASC_NODE": 324.1317, "ARG_OF_PERICENTER": 282.2143, "MEAN_ANOMALY": 311.7522, "EPHEMERIS_TYPE": 0, "CLASSIFICATION_TYPE": "U", "NORAD_CAT_ID": 54027, "ELEMENT_SET_NO": 999, "REV_AT_EPOCH": 1206, "BSTAR": 0, "MEAN_MOTION_DOT": 0, "MEAN_MOTION_DDOT": 0}, "tle": {"line1": "1 54027U 22128B   25348.67621586  .00000000  00000+0  00000+0 0  9994", "line2": "2 54027   0.0264 324.1317 0001377 282.2143 311.7522  1.00267036 12068"}}, "geometry": {"type": "Point", "coordinates": [-119.08305999712512, -0.047815426835981306]}}, {"type": "Feature", "properties": {"norad_id": 54243, "name": "GALAXY 31 (G-31)", "group": "intelsat", "lat": -0.03494324878826893, "lon": -111.15104559468182, "alt_km": 35780.75856151194, "timestamp": "2025-12-15T19:00:45.014434+00:00", "meta": {"OBJECT_NAME": "GALAXY 31 (G-31)", "OBJECT_ID": "2022-153A", "EPOCH": "2025-12-14T21:24:15.312096", "MEAN_MOTION": 1.00271102, "ECCENTRICITY": 0.00014922, "INCLINATION": 0.013, "RA_OF_ASC_NODE": 353.12, "ARG_OF_PERICENTER": 285.8278, "MEAN_ANOMALY": 4.9116, "EPHEMERIS_TYPE": 0, "CLASSIFICATION_TYPE": "U", "NORAD_CAT_ID": 54243, "ELEMENT_SET_NO": 999, "REV_AT_EPOCH": 528, "BSTAR": 0, "MEAN_MOTION_DOT": 0, "MEAN_MOTION_DDOT": 0}, "tle": {"line1": "1 54243U 22153A   25348.89184389  .00000000  00000+0  00000+0 0  9991", "line2": "2 54243   0.0130 353.1200 0001492 285.8278   4.9116  1.00271102  5284"}}, "geometry": {"type": "Point", "coordinates": [-111.15104559468182, -0.03494324878826893]}}, {"type": "Feature", "properties": {"norad_id": 54244, "name": "GALAXY 32 (G-32)", "group": "intelsat", "lat": -0.0262791896975582, "lon": -81.14994217014164, "alt_km": 35777.52038740973, "timestamp": "2025-12-15T19:00:45.014446+00:00", "meta": {"OBJECT_NAME": "GALAXY 32 (G-32)", "OBJECT_ID": "2022-153B", "EPOCH": "2025-12-14T11:16:28.521120", "MEAN_MOTION": 1.00271615, "ECCENTRICITY": 0.00025826, "INCLINATION": 0.0101, "RA_OF_ASC_NODE": 332.4414, "ARG_OF_PERICENTER": 343.5961, "MEAN_ANOMALY": 205.4705, "EPHEMERIS_TYPE": 0, "CLASSIFICATION_TYPE": "U", "NORAD_CAT_ID": 54244, "ELEMENT_SET_NO": 999, "REV_AT_EPOCH": 1129, "BSTAR": 0, "MEAN_MOTION_DOT": -1.56e-06, "MEAN_MOTION_DDOT": 0}, "tle": {"line1": "1 54244U 22153B   25348.46977455 -.00000156  00000+0  00000+0 0  9992", "line2": "2 54244   0.0101 332.4414 0002582 343.5961 205.4705  1.00271615 11291"}}, "geometry": {"type": "Point", "coordinates": [-81.14994217014164, -0.0262791896975582]}}, {"type": "Feature", "properties": {"norad_id": 54741, "name": "GALAXY 35 (G-35)", "group": "intelsat", "lat": -0.03383595796161409, "lon": -83.24726175216314, "alt_km": 35777.277487226325, "timestamp": "2025-12-15T19:00:45.014458+00:00", "meta": {"OBJECT_NAME": "GALAXY 35 (G-35)", "OBJECT_ID": "2022-170A", "EPOCH": "2025-12-14T21:32:14.546976", "MEAN_MOTION": 1.00269195, "ECCENTRICITY": 0.00022738, "INCLINATION": 0.0159, "RA_OF_ASC_NODE": 339.3755, "ARG_OF_PERICENTER": 291.6447, "MEAN_ANOMALY": 42.7407, "EPHEMERIS_TYPE": 0, "CLASSIFICATION_TYPE": "U", "NORAD_CAT_ID": 54741, "ELEMENT_SET_NO": 999, "REV_AT_EPOCH": 1104, "BSTAR": 0, "MEAN_MOTION_DOT": 0, "MEAN_MOTION_DDOT": 0}, "tle": {"line1": "1 54741U 22170A   25348.89739059  .00000000  00000+0  00000+0 0  9993", "line2": "2 54741   0.0159 339.3755 0002273 291.6447  42.7407  1.00269195 11043"}}, "geometry": {"type": "Point", "coordinates": [-83.24726175216314, -0.03383595796161409]}}, {"type": "Feature", "properties": {"norad_id": 54742, "name": "GALAXY 36 (G-36)", "group": "intelsat", "lat": -0.0060095002085448, "lon": -79.13162033765131, "alt_km": 35785.30067687518, "timestamp": "2025-12-15T19:00:45.014470+00:00", "meta": {"OBJECT_NAME": "GALAXY 36 (G-36)", "OBJECT_ID": "2022-170B", "EPOCH": "2025-12-14T12:59:48.624864", "MEAN_MOTION": 1.00271323, "ECCENTRICITY": 2.906e-05, "INCLINATION": 0.0231, "RA_OF_ASC_NODE": 256.797, "ARG_OF_PERICENTER": 60.6633, "MEAN_ANOMALY": 231.956, "EPHEMERIS_TYPE": 0, "CLASSIFICATION_TYPE": "U", "NORAD_CAT_ID": 54742, "ELEMENT_SET_NO": 999, "REV_AT_EPOCH": 1092, "BSTAR": 0, "MEAN_MOTION_DOT": -1.66e-06, "MEAN_MOTION_DDOT": 0}, "tle": {"line1": "1 54742U 22170B   25348.54153501 -.00000166  00000+0  00000+0 0  9992", "line2": "2 54742   0.0231 256.7970 0000290  60.6633 231.9560  1.00271323 10928"}}, "geometry": {"type": "Point", "coordinates": [-79.13162033765131, -0.0060095002085448]}}, {"type": "Feature", "properties": {"norad_id": 57493, "name": "GALAXY 37 (G-37)", "group": "intelsat", "lat": -0.020887445728111326, "lon": -117.13453239092348, "alt_km": 35778.02700049686, "timestamp": "2025-12-15T19:00:45.014482+00:00", "meta": {"OBJECT_NAME": "GALAXY 37 (G-37)", "OBJECT_ID": "2023-112A", "EPOCH": "2025-12-14T16:14:22.490880", "MEAN_MOTION": 1.00272504, "ECCENTRICITY": 0.00020403, "INCLINATION": 0.0203, "RA_OF_ASC_NODE": 49.3136, "ARG_OF_PERICENTER": 219.5099, "MEAN_ANOMALY": 291.3663, "EPHEMERIS_TYPE": 0, "CLASSIFICATION_TYPE": "U", "NORAD_CAT_ID": 57493, "ELEMENT_SET_NO": 999, "REV_AT_EPOCH": 869, "BSTAR": 0, "MEAN_MOTION_DOT": 6.7e-07, "MEAN_MOTION_DDOT": 0}, "tle": {"line1": "1 57493U 23112A   25348.67664920  .00000067  00000+0  00000+0 0  9990", "line2": "2 57493   0.0203  49.3136 0002040 219.5099 291.3663  1.00272504  8696"}}, "geometry": {"type": "Point", "coordinates": [-117.13453239092348, -0.020887445728111326]}}]}